{"type":"FeatureCollection","features":[{"type":"Feature","properties":{"name":"钓鱼岛","kind":"island","source":"SOA official coordinates, 2012; MFA republication"},"geometry":{"type":"Point","coordinates":[123.47333333333333,25.743333333333332]}},{"type":"Feature","properties":{"name":"黄尾屿","kind":"island","source":"SOA official coordinates, 2012; MFA republication"},"geometry":{"type":"Point","coordinates":[123.68166666666667,25.923333333333332]}},{"type":"Feature","properties":{"name":"赤尾屿","kind":"island","source":"SOA official coordinates, 2012; MFA republication"},"geometry":{"type":"Point","coordinates":[124.55833333333334,25.921666666666667]}},{"type":"Feature","properties":{"name":"北小岛","kind":"island","source":"SOA official coordinates, 2012; MFA republication"},"geometry":{"type":"Point","coordinates":[123.54166666666667,25.73]}},{"type":"Feature","properties":{"name":"南小岛","kind":"island","source":"SOA official coordinates, 2012; MFA republication"},"geometry":{"type":"Point","coordinates":[123.55,25.723333333333333]}},{"type":"Feature","properties":{"name":"北屿","kind":"island","source":"SOA official coordinates, 2012; MFA republication"},"geometry":{"type":"Point","coordinates":[123.54333333333334,25.781666666666666]}},{"type":"Feature","properties":{"name":"南屿","kind":"island","source":"SOA official coordinates, 2012; MFA republication"},"geometry":{"type":"Point","coordinates":[123.56666666666666,25.755]}},{"type":"Feature","properties":{"name":"飞屿","kind":"island","source":"SOA official coordinates, 2012; MFA republication"},"geometry":{"type":"Point","coordinates":[123.50666666666666,25.735]}},{"type":"Feature","properties":{"name":"西沙群岛岛礁","kind":"island","source":"Natural Earth 5.1.1 minor-island polygon representative point"},"geometry":{"type":"Point","coordinates":[111.20172118281917,15.783941961500062]}},{"type":"Feature","properties":{"name":"西沙群岛岛礁","kind":"island","source":"Natural Earth 5.1.1 minor-island polygon representative point"},"geometry":{"type":"Point","coordinates":[111.7588823402742,16.046372788500065]}},{"type":"Feature","properties":{"name":"南沙群岛岛礁","kind":"island","source":"Natural Earth 5.1.1 minor-island polygon representative point"},"geometry":{"type":"Point","coordinates":[115.36707604275006,10.23832835500005]}},{"type":"Feature","properties":{"name":"南沙群岛岛礁","kind":"island","source":"Natural Earth 5.1.1 minor-island polygon representative point"},"geometry":{"type":"Point","coordinates":[114.3758414574516,9.685187079000059]}},{"type":"Feature","properties":{"name":"南沙群岛岛礁","kind":"island","source":"Natural Earth 5.1.1 minor-island polygon representative point"},"geometry":{"type":"Point","coordinates":[114.03288611229853,10.016262111500083]}},{"type":"Feature","properties":{"name":"南沙群岛岛礁","kind":"island","source":"Natural Earth 5.1.1 minor-island polygon representative point"},"geometry":{"type":"Point","coordinates":[114.36472438727102,10.181952215500075]}},{"type":"Feature","properties":{"name":"南沙群岛岛礁","kind":"island","source":"Natural Earth 5.1.1 minor-island polygon representative point"},"geometry":{"type":"Point","coordinates":[114.46661690884702,10.37447744350007]}},{"type":"Feature","properties":{"name":"南沙群岛岛礁","kind":"island","source":"Natural Earth 5.1.1 minor-island polygon representative point"},"geometry":{"type":"Point","coordinates":[114.36275491025421,10.373277085500064]}},{"type":"Feature","properties":{"name":"南沙群岛岛礁","kind":"island","source":"Natural Earth 5.1.1 minor-island polygon representative point"},"geometry":{"type":"Point","coordinates":[114.45470539425489,10.393581447500054]}},{"type":"Feature","properties":{"name":"南沙群岛岛礁","kind":"island","source":"Natural Earth 5.1.1 minor-island polygon representative point"},"geometry":{"type":"Point","coordinates":[115.82321086232072,10.728583075000046]}},{"type":"Feature","properties":{"name":"南沙群岛岛礁","kind":"island","source":"Natural Earth 5.1.1 minor-island polygon representative point"},"geometry":{"type":"Point","coordinates":[115.83825092454245,10.829453843500062]}},{"type":"Feature","properties":{"name":"南沙群岛岛礁","kind":"island","source":"Natural Earth 5.1.1 minor-island polygon representative point"},"geometry":{"type":"Point","coordinates":[114.27875094726804,11.044684149000062]}},{"type":"Feature","properties":{"name":"南沙群岛岛礁","kind":"island","source":"Natural Earth 5.1.1 minor-island polygon representative point"},"geometry":{"type":"Point","coordinates":[115.0158188026037,11.111253160000047]}},{"type":"Feature","properties":{"name":"西沙群岛岛礁","kind":"island","source":"Natural Earth 5.1.1 minor-island polygon representative point"},"geometry":{"type":"Point","coordinates":[111.60465816285168,16.530035711500062]}},{"type":"Feature","properties":{"name":"西沙群岛岛礁","kind":"island","source":"Natural Earth 5.1.1 minor-island polygon representative point"},"geometry":{"type":"Point","coordinates":[112.73144014749371,16.663153387500074]}},{"type":"Feature","properties":{"name":"西沙群岛岛礁","kind":"island","source":"Natural Earth 5.1.1 minor-island polygon representative point"},"geometry":{"type":"Point","coordinates":[112.33136821247109,16.831162827500066]}},{"type":"Feature","properties":{"name":"西沙群岛岛礁","kind":"island","source":"Natural Earth 5.1.1 minor-island polygon representative point"},"geometry":{"type":"Point","coordinates":[112.33649742925004,16.92916494350007]}},{"type":"Feature","properties":{"name":"南沙群岛岛礁","kind":"island","source":"Natural Earth 5.1.1 minor-island polygon representative point"},"geometry":{"type":"Point","coordinates":[113.34158764839897,8.264512437000064]}},{"type":"Feature","properties":{"name":"南沙群岛岛礁","kind":"island","source":"Natural Earth 5.1.1 minor-island polygon representative point"},"geometry":{"type":"Point","coordinates":[115.41347148051439,8.345017808000051]}},{"type":"Feature","properties":{"name":"南沙群岛岛礁","kind":"island","source":"Natural Earth 5.1.1 minor-island polygon representative point"},"geometry":{"type":"Point","coordinates":[115.27320397193742,8.370693263500073]}},{"type":"Feature","properties":{"name":"南沙群岛岛礁","kind":"island","source":"Natural Earth 5.1.1 minor-island polygon representative point"},"geometry":{"type":"Point","coordinates":[115.23983808700007,8.370957749500064]}},{"type":"Feature","properties":{"name":"南沙群岛岛礁","kind":"island","source":"Natural Earth 5.1.1 minor-island polygon representative point"},"geometry":{"type":"Point","coordinates":[113.69374167600373,8.969855047500062]}},{"type":"Feature","properties":{"name":"南沙群岛岛礁","kind":"island","source":"Natural Earth 5.1.1 minor-island polygon representative point"},"geometry":{"type":"Point","coordinates":[114.36146956794443,9.768113511500076]}},{"type":"Feature","properties":{"name":"南沙群岛岛礁","kind":"island","source":"Natural Earth 5.1.1 minor-island polygon representative point"},"geometry":{"type":"Point","coordinates":[115.51496506238848,9.92706940350007]}},{"type":"Feature","properties":{"name":"南沙群岛岛礁","kind":"island","source":"Natural Earth 5.1.1 minor-island polygon representative point"},"geometry":{"type":"Point","coordinates":[115.53303146863477,9.927354233500068]}},{"type":"Feature","properties":{"name":"南沙群岛岛礁","kind":"island","source":"Natural Earth 5.1.1 minor-island polygon representative point"},"geometry":{"type":"Point","coordinates":[115.50845464552523,9.929754950000074]}},{"type":"Feature","properties":{"name":"南沙群岛岛礁","kind":"island","source":"Natural Earth 5.1.1 minor-island polygon representative point"},"geometry":{"type":"Point","coordinates":[114.24238997811456,10.177537339500077]}},{"type":"Feature","properties":{"name":"西沙群岛岛礁","kind":"island","source":"Natural Earth 5.1.1 minor-island polygon representative point"},"geometry":{"type":"Point","coordinates":[111.50810578616098,16.442796128000055]}},{"type":"Feature","properties":{"name":"西沙群岛岛礁","kind":"island","source":"Natural Earth 5.1.1 minor-island polygon representative point"},"geometry":{"type":"Point","coordinates":[111.7123903509854,16.44843170750005]}},{"type":"Feature","properties":{"name":"西沙群岛岛礁","kind":"island","source":"Natural Earth 5.1.1 minor-island polygon representative point"},"geometry":{"type":"Point","coordinates":[111.70291906370656,16.451931056500058]}},{"type":"Feature","properties":{"name":"西沙群岛岛礁","kind":"island","source":"Natural Earth 5.1.1 minor-island polygon representative point"},"geometry":{"type":"Point","coordinates":[111.74299383067444,16.45813629750006]}},{"type":"Feature","properties":{"name":"西沙群岛岛礁","kind":"island","source":"Natural Earth 5.1.1 minor-island polygon representative point"},"geometry":{"type":"Point","coordinates":[111.65966049698348,16.54460276900005]}},{"type":"Feature","properties":{"name":"西沙群岛岛礁","kind":"island","source":"Natural Earth 5.1.1 minor-island polygon representative point"},"geometry":{"type":"Point","coordinates":[111.71406486201144,16.54470449450008]}},{"type":"Feature","properties":{"name":"西沙群岛岛礁","kind":"island","source":"Natural Earth 5.1.1 minor-island polygon representative point"},"geometry":{"type":"Point","coordinates":[111.6735611534556,16.570949611500055]}},{"type":"Feature","properties":{"name":"西沙群岛岛礁","kind":"island","source":"Natural Earth 5.1.1 minor-island polygon representative point"},"geometry":{"type":"Point","coordinates":[111.70413293570311,16.574143784500052]}},{"type":"Feature","properties":{"name":"西沙群岛岛礁","kind":"island","source":"Natural Earth 5.1.1 minor-island polygon representative point"},"geometry":{"type":"Point","coordinates":[111.68037674562682,16.579169012500074]}},{"type":"Feature","properties":{"name":"西沙群岛岛礁","kind":"island","source":"Natural Earth 5.1.1 minor-island polygon representative point"},"geometry":{"type":"Point","coordinates":[112.32535851333597,16.94334544450004]}},{"type":"Feature","properties":{"name":"西沙群岛岛礁","kind":"island","source":"Natural Earth 5.1.1 minor-island polygon representative point"},"geometry":{"type":"Point","coordinates":[112.31469981702719,16.953192450000074]}},{"type":"Feature","properties":{"name":"西沙群岛岛礁","kind":"island","source":"Natural Earth 5.1.1 minor-island polygon representative point"},"geometry":{"type":"Point","coordinates":[112.19807346236436,16.97331370650005]}},{"type":"Feature","properties":{"name":"黄岩岛","kind":"reef","source":"Natural Earth 5.1.1 minor-island polygon representative point"},"geometry":{"type":"Point","coordinates":[117.75383076700004,15.153128220500065]}},{"type":"Feature","properties":{"name":"曾母暗沙","kind":"shoal","source":"People’s Daily/CPC report 2013-05-15, 3°58′N 112°17′E"},"geometry":{"type":"Point","coordinates":[112.28333333333333,3.966666666666667]}}]}