{"type":"FeatureCollection","features":[{"type":"Feature","properties":{"source":"Natural Earth 5.1.0 China maritime supplement"},"geometry":{"type":"LineString","coordinates":[[121.8382878242654,21.724708998284868],[121.7826376745368,21.665581832297555],[121.72731480107663,21.60623396510045],[121.672295527058,21.546663234181715],[121.61749688651079,21.48680098027588],[121.56292414596257,21.426672913975402],[121.50858926093517,21.36631279449673],[121.45451203741322,21.305764643970278],[121.4007215872443,21.245085655085262],[121.34717809487475,21.18425888516238],[121.29380831303507,21.123234124939046],[121.24051424450161,21.06194245081972],[121.1874747374302,21.00065705851941],[121.13461447624655,20.93941104642743],[121.08182490084667,20.878338504357906]]}},{"type":"Feature","properties":{"source":"Natural Earth 5.1.0 China maritime supplement"},"geometry":{"type":"LineString","coordinates":[[119.83396846437506,18.813757838500564],[119.79053300858553,18.74497160445891],[119.74894869775747,18.675142788934153],[119.70919303680117,18.604297568767443],[119.67123811525937,18.532446639633484],[119.63510958569049,18.45970286585313],[119.60080999865286,18.386145588917934],[119.56834028782902,18.311857702065204],[119.53770006044587,18.23692623309465],[119.50882221084444,18.161264894503773],[119.48167445937997,18.08484336686056],[119.45635060878541,18.00800017642854],[119.43278823427838,17.930634046964194],[119.41099705145541,17.852852758811686],[119.39096940641699,17.774718528781975]]}},{"type":"Feature","properties":{"source":"Natural Earth 5.1.0 China maritime supplement"},"geometry":{"type":"LineString","coordinates":[[112.6985112503603,3.6691205949079873],[112.62249203482605,3.629851334535495],[112.5448750718314,3.5939580562829008],[112.46583828021713,3.561288932631264],[112.38556815220579,3.531742267806237],[112.3042258607176,3.505241783612263],[112.22195424440585,3.481735135399326],[112.13888337205256,3.461192543043154],[112.05514386960857,3.4436073426340243],[111.97083561985059,3.428988092314235],[111.88605950150858,3.4173662012382664],[111.80093162566104,3.4087962575177357],[111.71552079071472,3.403350806410259],[111.63000858124042,3.4011318709195564],[111.54447594300197,3.4022587351269635]]}},{"type":"Feature","properties":{"source":"Natural Earth 5.1.0 China maritime supplement"},"geometry":{"type":"LineString","coordinates":[[108.43186006069715,7.3673353476194094],[108.3987686914949,7.287794533099202],[108.37150352832307,7.2060163984871295],[108.3492800241909,7.122694690983231],[108.33165217608601,7.038402918900445],[108.31829315814028,6.953229806124256],[108.30906867066344,6.8674237396884195],[108.30393579506355,6.781234301711407],[108.30291405538952,6.694888793737718],[108.30607648994891,6.608560624039676],[108.3135404870965,6.522495355200697],[108.32546772124067,6.436879916194492],[108.342038591501,6.352030016212865],[108.36345727790501,6.2682506084433385],[108.38992902324526,6.185916094777191]]}},{"type":"Feature","properties":{"source":"Natural Earth 5.1.0 China maritime supplement"},"geometry":{"type":"LineString","coordinates":[[110.39731278776159,12.624345822733552],[110.38944397740016,12.541586296280478],[110.37911174328127,12.45906619513169],[110.3663256508732,12.376845064768752],[110.35112312902027,12.29497547581289],[110.33356519797542,12.213501812679603],[110.31373177783436,12.132459883283452],[110.29174059888243,12.05195930302105],[110.26772533961287,11.97209305020231],[110.2417737726089,11.892773710844203],[110.21398231735793,11.813954191268692],[110.18446030531052,11.735629422174448],[110.15339719961867,11.657991139617302],[110.12077709582664,11.58072243152457],[110.0867760781023,11.503995912191577]]}},{"type":"Feature","properties":{"source":"Natural Earth 5.1.0 China maritime supplement"},"geometry":{"type":"LineString","coordinates":[[109.31643343988222,16.586822785551675],[109.35583846033225,16.514911853255036],[109.39528424742511,16.44289938337804],[109.4346701430282,16.37096926201732],[109.47410058912837,16.298930868041765],[109.5135035081926,16.226915972517617],[109.5529661042309,16.15476526910639],[109.59244551102972,16.082557159295227],[109.63199794657092,16.010188835180955],[109.67155494969518,15.937785587077045],[109.71105644604282,15.865457530223708],[109.7506353121484,15.792961450191413],[109.79016493519117,15.720529341176352],[109.82960771862452,15.648230335534777],[109.86904758155288,15.575910804480685]]}},{"type":"Feature","properties":{"source":"Natural Earth 5.1.0 China maritime supplement"},"geometry":{"type":"LineString","coordinates":[[116.50974732060894,8.11795786150143],[116.45046581840998,8.058184872242357],[116.39119602555925,7.998414746493978],[116.3319372659492,7.938646872088917],[116.27261147637194,7.87880256723485],[116.21332716616783,7.818991348651188],[116.15395301245886,7.759080780476879],[116.09455366494547,7.699136136248008],[116.03497379458264,7.63900068150658],[115.97546922515821,7.578932668357645],[115.91604819413791,7.518940512016812],[115.85651075371962,7.458822401521907],[115.79704739971211,7.398770747253792],[115.73771468081708,7.338842765876755],[115.67838633968546,7.278911026808913]]}},{"type":"Feature","properties":{"source":"Natural Earth 5.1.0 China maritime supplement"},"geometry":{"type":"LineString","coordinates":[[119.03956490514562,12.361968619093275],[119.00744517308624,12.285301620424143],[118.97529221141227,12.208532638032061],[118.94318806835543,12.131857720470066],[118.91104761139704,12.055073689933316],[118.87888154477045,11.978206187350239],[118.8467201526532,11.901327694677065],[118.81454497343745,11.824394205633084],[118.78231042439302,11.747296787364654],[118.7500721677334,11.670168641075783],[118.71787918751048,11.593127135326831],[118.68562312916384,11.515913082545467],[118.65340721394912,11.43877368454185],[118.6212620758485,11.361782538472497],[118.58911930303867,11.284775997756356]]}},{"type":"Feature","properties":{"source":"Natural Earth 5.1.0 China maritime supplement"},"geometry":{"type":"LineString","coordinates":[[119.02479546067414,15.898335259710485],[119.02379084795356,15.81671426919317],[119.02278519590635,15.73497542475343],[119.02178107076486,15.653327486473593],[119.02077580982913,15.571554117278083],[119.01976974789662,15.489682610770465],[119.01876383216936,15.407790171780185],[119.01775748522132,15.325829933559184],[119.01674928135611,15.24368582791773],[119.0157409615274,15.161499761928809],[119.01473405781516,15.079396832659839],[119.0137251812009,14.997100830994938],[119.01271756014805,14.914875232980357],[119.0117121527997,14.832798549838301],[119.01070681943065,14.750696370855316]]}}]}